CCSDS_OMM_VERS,COMMENT,CREATION_DATE,ORIGINATOR,OBJECT_NAME,OBJECT_ID,CENTER_NAME,REF_FRAME,TIME_SYSTEM,MEAN_ELEMENT_THEORY,EPOCH,MEAN_MOTION,ECCENTRICITY,INCLINATION,RA_OF_ASC_NODE,ARG_OF_PERICENTER,MEAN_ANOMALY,EPHEMERIS_TYPE,CLASSIFICATION_TYPE,NORAD_CAT_ID,ELEMENT_SET_NO,REV_AT_EPOCH,BSTAR,MEAN_MOTION_DOT,MEAN_MOTION_DDOT,SEMIMAJOR_AXIS,PERIOD,APOAPSIS,PERIAPSIS,OBJECT_TYPE,RCS_SIZE,COUNTRY_CODE,LAUNCH_DATE,SITE,DECAY_DATE,FILE,GP_ID,TLE_LINE0,TLE_LINE1,TLE_LINE2
3.0,GENERATED VIA SPACE-TRACK.ORG API,2004-05-30T15:49:20,18 SPCS,SL-12 R/B(1),2004-015C,EARTH,TEME,UTC,SGP4,2004-04-28T20:50:01.952160,16.42801296,0.0005498,51.6166,162.6495,278.3517,81.8724,0,U,28236,999,29,0.00028215,0.05770495,1.2488e-05,6536.502,87.655,161.961,154.773,ROCKET BODY,LARGE,CIS,2004-04-26,TTMTR,2004-04-29,7976,7762987,0 SL-12 R/B(1),1 28236U 04015C   04119.86807815 +.05770495 +12488-4 +28215-3 0  9994,2 28236 051.6166 162.6495 0005498 278.3517 081.8724 16.42801296000290
3.0,GENERATED VIA SPACE-TRACK.ORG API,2022-08-12T20:12:43,18 SPCS,AEROCUBE 7C,2017-071G,EARTH,TEME,UTC,SGP4,2022-08-12T03:21:22.321152,16.19381516,0.0009085,51.6172,111.3257,245.5045,114.5026,0,U,43043,999,26450,0.0011326,0.02166709,1.1821e-05,6599.369,88.923,227.229,215.238,PAYLOAD,SMALL,US,2017-11-12,WLPIS,2022-08-12,3535350,210073030,0 AEROCUBE 7C,1 43043U 17071G   22224.13984168  .02166709  11821-4  11326-2 0  9995,2 43043  51.6172 111.3257 0009085 245.5045 114.5026 16.19381516264502
3.0,GENERATED VIA SPACE-TRACK.ORG API,2004-05-28T18:57:32,18 SPCS,CZ-4 DEB,1999-057EG,EARTH,TEME,UTC,SGP4,2002-03-25T22:08:41.919359,16.27204819,0.0013774,98.5019,233.9248,296.2142,193.6985,0,U,26242,999,10954,0.0049621,0.17201114,3.1567e-06,6578.203,88.495,209.129,191.007,DEBRIS,SMALL,PRC,1999-10-14,TSC,2002-03-26,6595,2426007,0 CZ-4 DEB,1 26242U 99057EG  02084.92270740 +.17201114 +31567-5 +49621-2 0  9999,2 26242 098.5019 233.9248 0013774 296.2142 193.6985 16.27204819109549
3.0,GENERATED VIA SPACE-TRACK.ORG API,2004-08-15T23:39:35,18 SPCS,SL-7 R/B,1975-003B,EARTH,TEME,UTC,SGP4,1975-08-21T20:42:28.524960,16.26215627,0.0083658,81.8479,95.7288,93.7068,267.3738,0,U,7612,999,3151,0.0,0.05965904,0.0,6580.87,88.549,257.79,147.681,ROCKET BODY,,,,,1975-08-22,33990,9513422,0 SL-7 R/B,1 07612U 75003  B 75233.86283015  .05965904 +00000-0 +00000-0 0  9992,2 07612 081.8479 095.7288 0083658 093.7068 267.3738 16.26215627031511
3.0,GENERATED VIA SPACE-TRACK.ORG API,2004-08-17T15:01:33,18 SPCS,SL-6 R/B(1),1995-042B,EARTH,TEME,UTC,SGP4,1995-09-05T08:46:50.551968,16.45290735,0.0019092,62.816,194.3918,165.4337,194.7438,0,U,23643,999,438,0.00020281,0.1025106,8.699e-06,6529.907,87.522,164.239,139.305,ROCKET BODY,LARGE,CIS,1995-08-09,PKMTR,1995-09-05,35080,21798324,0 SL-6 R/B(1),1 23643U 95042  B 95248.36586287  .10251060 +86990-5 +20281-3 0  9999,2 23643 062.8160 194.3918 0019092 165.4337 194.7438 16.45290735004381
3.0,GENERATED VIA SPACE-TRACK.ORG API,2004-08-16T23:16:38,18 SPCS,COSMOS 1405 DEB,1982-088P,EARTH,TEME,UTC,SGP4,1983-12-21T23:00:09.010367,15.5031219,0.0170522,64.9258,120.1907,163.5122,197.1477,0,U,14639,999,0,0.010076,0.010665,0.0,6793.955,92.884,531.672,299.968,DEBRIS,,,,,1984-01-01,34359,13477087,0 COSMOS 1405 DEB,1 14639U 82088  P 83355.95843762  .01066500 +00000-0 +10076-1 0  9990,2 14639 064.9258 120.1907 0170522 163.5122 197.1477 15.50312190000009
3.0,GENERATED VIA SPACE-TRACK.ORG API,2004-08-15T23:42:41,18 SPCS,DELTA 1 DEB,1975-004DH,EARTH,TEME,UTC,SGP4,1979-11-06T05:21:58.678848,15.31926959,0.0034001,97.3509,220.5408,222.4385,137.4227,0,U,9282,999,20119,0.012155,0.00381102,0.0,6848.204,93.999,493.354,446.785,DEBRIS,SMALL,US,1975-01-22,AFWTR,1979-12-10,34052,10922689,0 DELTA 1 DEB,1 09282U 75004 DH 79310.22359582  .00381102 +00000-0 +12155-1 0  9993,2 09282 097.3509 220.5408 0034001 222.4385 137.4227 15.31926959201190
3.0,GENERATED VIA SPACE-TRACK.ORG API,2005-04-29T09:15:42,18 SPCS,SL-6 R/B(1),1992-069B,EARTH,TEME,UTC,SGP4,1992-11-24T21:32:02.240159,16.41110558,0.0036947,62.7936,3.6242,110.2369,250.6164,0,U,22190,999,544,0.00035799,0.14000439,3.95e-05,6540.991,87.745,187.023,138.689,ROCKET BODY,,,,,1992-11-25,131233,46904250,0 SL-6 R/B(1),1 22190U 92069  B 92329.89724815  .14000439 +39500-4 +35799-3 0  9997,2 22190 062.7936 003.6242 0036947 110.2369 250.6164 16.41110558005446
3.0,GENERATED VIA SPACE-TRACK.ORG API,2005-06-09T11:44:05,18 SPCS,MIR DEB,1986-017DB,EARTH,TEME,UTC,SGP4,1991-06-13T20:17:07.162656,16.22404745,0.0015125,51.5922,297.9695,307.0773,53.5502,0,U,21237,999,30472,0.0016936,0.04194999,1.79e-05,6591.172,88.757,223.006,203.067,DEBRIS,,,,,1991-06-15,145815,49669270,0 MIR DEB,1 21237U 86017 DB 91164.84522179  .04194999 +17900-4 +16936-2 0  9999,2 21237 051.5922 297.9695 0015125 307.0773 053.5502 16.22404745304720
3.0,GENERATED VIA SPACE-TRACK.ORG API,2004-08-15T23:41:56,18 SPCS,TITAN 3C TRANSTAGE DEB,1965-082GT,EARTH,TEME,UTC,SGP4,1979-04-28T06:32:45.947327,15.60396792,0.0012627,31.0525,137.2298,235.6317,76.0398,0,U,1958,999,72686,0.0,0.00436601,0.0,6764.651,92.284,395.058,377.974,DEBRIS,SMALL,US,1965-10-15,AFETR,1979-05-23,34037,10629148,0 TITAN 3C TRANSTAGE DEB,1 01958U 65082 GT 79118.27275402  .00436601 +00000-0 +00000-0 0  9999,2 01958 031.0525 137.2298 0012627 235.6317 076.0398 15.60396792726868
3.0,GENERATED VIA SPACE-TRACK.ORG API,2023-02-06T17:27:22,18 SPCS,FALCON 9 DEB,2023-013BJ,EARTH,TEME,UTC,SGP4,2023-02-06T02:12:54.578304,16.4488104,0.0019821,42.9802,337.1645,241.2526,118.6377,0,U,55387,999,174,0.00022723,0.1078889,9.2659e-06,6530.987,87.544,165.797,139.907,DEBRIS,,US,2023-01-26,AFETR,2023-02-07,3775254,224611409,0 FALCON 9 DEB,1 55387U 23013BJ  23037.09229836  .10788890  92659-5  22723-3 0  9997,2 55387  42.9802 337.1645 0019821 241.2526 118.6377 16.44881040  1748
3.0,GENERATED VIA SPACE-TRACK.ORG API,2008-04-09T08:55:11,18 SPCS,USA 193 DEB,2006-057BD,EARTH,TEME,UTC,SGP4,2008-04-08T15:42:58.445567,16.25677627,0.0056894,58.6491,224.3778,51.2996,309.8016,0,U,32582,999,669,0.010803,0.52824336,1.1216e-05,6582.322,88.578,241.637,166.738,DEBRIS,SMALL,US,2006-12-14,AFWTR,2008-04-08,537116,65804542,0 USA 193 DEB,1 32582U 06057BD  08099.65484312  .52824336  11216-4  10803-1 0  9998,2 32582 058.6491 224.3778 0056894 051.2996 309.8016 16.25677627  6699
3.0,GENERATED VIA SPACE-TRACK.ORG API,2004-08-16T23:25:53,18 SPCS,CZ-2C R/B,1987-075B,EARTH,TEME,UTC,SGP4,1987-09-24T20:25:37.170623,16.56242131,0.000721,62.9807,341.9238,216.5331,143.5394,0,U,18342,999,252,0.00021461,0.4792437,4.0381e-05,6501.09,86.943,127.643,118.268,ROCKET BODY,,,,,1987-09-24,34544,15654701,0 CZ-2C R/B,1 18342U 87075  B 87267.85112466  .47924370 +40381-4 +21461-3 0  9991,2 18342 062.9807 341.9238 0007210 216.5331 143.5394 16.56242131002522
3.0,GENERATED VIA SPACE-TRACK.ORG API,2024-05-20T12:26:15,18 SPCS,STARLINK-3263,2021-125AS,EARTH,TEME,UTC,SGP4,2024-05-20T12:08:13.688736,16.39606601,0.0009303,53.1991,265.5594,299.0405,110.7104,0,U,50196,999,13756,0.0027524,0.36706183,1.2411e-05,6544.986,87.826,172.94,160.762,PAYLOAD,LARGE,US,2021-12-18,AFWTR,2024-05-20,4322382,257631240,0 STARLINK-3263,1 50196U 21125AS  24141.50571399  .36706183  12411-4  27524-2 0  9992,2 50196  53.1991 265.5594 0009303 299.0405 110.7104 16.39606601137565
3.0,GENERATED VIA SPACE-TRACK.ORG API,2004-08-15T23:40:50,18 SPCS,SL-6 R/B(1),1977-105B,EARTH,TEME,UTC,SGP4,1977-11-18T07:53:16.031328,16.39406626,0.0023176,62.7795,287.3957,132.1702,233.9555,0,U,10456,999,340,0.0,0.09159929,0.0,6545.522,87.836,182.557,152.217,ROCKET BODY,,,,,1977-11-18,34015,10116909,0 SL-6 R/B(1),1 10456U 77105  B 77322.32865777  .09159929 +00000-0 +00000-0 0  9996,2 10456 062.7795 287.3957 0023176 132.1702 233.9555 16.39406626003402
3.0,GENERATED VIA SPACE-TRACK.ORG API,2005-05-02T23:37:16,18 SPCS,PROGRESS 36,1988-038A,EARTH,TEME,UTC,SGP4,1988-06-05T21:34:50.473920,15.72351603,0.0003996,51.6138,125.1493,22.737,337.5193,0,U,19117,999,377,0.00012287,0.00016098,0.0,6730.319,91.582,354.873,349.494,PAYLOAD,LARGE,CIS,1988-05-13,TTMTR,1988-06-05,130984,43263024,0 PROGRESS 36,1 19117U 88038  A 88157.89919530  .00016098 +00000-0 +12287-3 0  9996,2 19117 051.6138 125.1493 0003996 022.7370 337.5193 15.72351603003779
3.0,GENERATED VIA SPACE-TRACK.ORG API,2004-05-28T18:53:05,18 SPCS,MOLNIYA 3-19,1982-083A,EARTH,TEME,UTC,SGP4,2002-01-13T19:22:04.075104,15.92788755,0.0325462,62.2412,352.3312,284.434,72.3717,0,U,13432,999,6990,0.0013862,0.99999999,9.5136e-06,6672.624,90.407,511.657,77.32,PAYLOAD,LARGE,CIS,1982-08-27,PKMTR,2002-01-13,6506,1915438,0 MOLNIYA 3-19,1 13432U 82083A   02013.80699161 +.99999999 +95136-5 +13862-2 0  9993,2 13432 062.2412 352.3312 0325462 284.4340 072.3717 15.92788755069906
3.0,GENERATED VIA SPACE-TRACK.ORG API,2004-08-17T16:17:18,18 SPCS,PSLV DEB,2001-049DC,EARTH,TEME,UTC,SGP4,2004-04-06T19:45:38.324735,16.1569481,0.0011861,97.8095,208.8241,311.1991,48.89,0,U,27156,999,12650,0.0050084,0.06933668,0.0,6609.408,89.125,239.112,223.433,DEBRIS,SMALL,IND,2001-10-22,SRI,2004-04-09,36595,38926873,0 PSLV DEB,1 27156U 01049DC  04097.82336024  .06933668  00000-0  50084-2 0  9993,2 27156 097.8095 208.8241 0011861 311.1991 048.8900 16.15694810126502
3.0,GENERATED VIA SPACE-TRACK.ORG API,2004-08-16T23:16:38,18 SPCS,COSMOS 1351 DEB,1982-034G,EARTH,TEME,UTC,SGP4,1983-02-25T10:19:34.804416,16.23335838,0.0013385,50.6819,19.9199,309.0726,50.9088,0,U,13839,999,4838,4.407e-05,0.09173921,8.737e-07,6588.651,88.706,219.335,201.697,DEBRIS,,,,,1983-02-25,34359,13439490,0 COSMOS 1351 DEB,1 13839U 82034  G 83056.43026394  .09173921 +08737-5 +04407-3 0  9994,2 13839 050.6819 019.9199 0013385 309.0726 050.9088 16.23335838048385
